[{"OBJECT_NAME":"STARLINK-32336","OBJECT_ID":"2024-158Q","EPOCH":"2026-03-09T23:12:10.759680","MEAN_MOTION":15.30185328,"ECCENTRICITY":0.00013967,"INCLINATION":53.1616,"RA_OF_ASC_NODE":64.2471,"ARG_OF_PERICENTER":97.0589,"MEAN_ANOMALY":263.0571,"EPHEMERIS_TYPE":0,"CLASSIFICATION_TYPE":"U","NORAD_CAT_ID":61004,"ELEMENT_SET_NO":999,"REV_AT_EPOCH":8569,"BSTAR":1.9365498e-5,"MEAN_MOTION_DOT":2.14e-6,"MEAN_MOTION_DDOT":0},{"OBJECT_NAME":"CZ-3B R\/B","OBJECT_ID":"2016-037B","EPOCH":"2026-03-08T22:31:30.883296","MEAN_MOTION":4.58295095,"ECCENTRICITY":0.5688399,"INCLINATION":19.2829,"RA_OF_ASC_NODE":190.878,"ARG_OF_PERICENTER":52.5603,"MEAN_ANOMALY":346.7419,"EPHEMERIS_TYPE":0,"CLASSIFICATION_TYPE":"U","NORAD_CAT_ID":41587,"ELEMENT_SET_NO":999,"REV_AT_EPOCH":11098,"BSTAR":0.0012213649,"MEAN_MOTION_DOT":0.00024788,"MEAN_MOTION_DDOT":0}]
